satname,norad_id,inclination_deg,eccentricity,mean_motion_rev_per_day,perigee_km,apogee_km,l1,l2
STARLINK-1572,46060,53.1605,0.0001248,15.30188261,474.39481746883484,476.1054228940329,1 46060U 20055AK  26200.33854043 -.00000682  00000+0 -10892-4 0  9999,2 46060  53.1605 222.6191 0001248  80.0681 280.0461 15.30188261329199
STARLINK-1573,46061,53.1602,0.0001324,15.3170219,469.82667650755957,471.6402574072099,1 46061U 20055AL  26200.34108632 -.00000424  00000+0 -18861-5 0  9996,2 46061  53.1602 221.3159 0001324 111.8925 248.2217 15.31702190329241
STARLINK-1577,46063,53.1572,3.05e-05,15.31637793,470.71654092747485,471.13433373615226,1 46063U 20055AN  26200.76057801  .00013945  00000+0  46117-3 0  9998,2 46063  53.1572 219.3599 0000305 116.3104 243.7929 15.31637793329304
STARLINK-1583,46064,53.1591,0.0001351,15.31688496,469.84900035061764,471.6995761807084,1 46064U 20055AP  26200.31785482  .00001756  00000+0  68369-4 0  9994,2 46064  53.1591 221.9237 0001351  78.1649 281.9504 15.31688496329225
STARLINK-1525,46066,53.0479,0.000516,15.46546215,423.3272436243169,430.34997845490943,1 46066U 20055AR  26200.81744542  .00067688  00000+0  13363-2 0  9991,2 46066  53.0479 195.4661 0005160  18.1817 341.9373 15.46546215329612
STARLINK-1536,46070,53.1597,0.0001064,15.31700482,470.0098380496929,471.4672787685213,1 46070U 20055AV  26200.31914326 -.00000361  00000+0  13176-6 0  9992,2 46070  53.1597 209.3014 0001064  85.7939 274.3184 15.31700482329408
STARLINK-1542,46073,53.1592,0.0001369,15.31701369,469.7983036089563,471.67352501289406,1 46073U 20055AY  26200.73501771  .00000473  00000+0  26993-4 0  9999,2 46073  53.1592 210.3341 0001369  73.4977 286.6175 15.31701369329417
STARLINK-1549,46074,53.0484,0.000273,15.34680218,460.0031779408955,463.7378220358887,1 46074U 20055AZ  26200.34197209  .00022442  00000+0  66735-3 0  9991,2 46074  53.0484 208.5498 0002730  46.6561 313.4667 15.34680218329386
STARLINK-1551,46075,53.1596,0.0001186,15.31703142,469.9183534023432,471.54290480396594,1 46075U 20055BA  26200.50589809 -.00000199  00000+0  53487-5 0  9999,2 46075  53.1596 208.3685 0001186  79.8849 280.2286 15.31703142329421
STARLINK-1552,46076,53.1592,0.0001221,15.31699985,469.903792053291,471.57628782644406,1 46076U 20055BB  26200.29610681 -.00000102  00000+0  84884-5 0  9998,2 46076  53.1592 208.9302 0001221  83.4466 276.6674 15.31699985329380
STARLINK-1559,46077,53.0209,0.000445,15.42064505,436.98304454369736,443.05120171328144,1 46077U 20055BC  26200.64459375  .00031652  00000+0  73589-3 0  9990,2 46077  53.0209 173.6064 0004450  47.0011 313.1365 15.42064505329860
STARLINK-1566,46079,53.158,0.0001294,15.31693889,469.8719648188089,471.64445889963736,1 46079U 20055BE  26200.30075306 -.00000625  00000+0 -83659-5 0  9992,2 46079  53.1580 208.7630 0001294  68.5282 291.5857 15.31693889329401
STARLINK-1568,46080,53.0566,0.0002927,15.57651282,392.47427540897024,396.4389517103482,1 46080U 20055BF  26200.49844492  .00028181  00000+0  37944-3 0  9993,2 46080  53.0566 118.6292 0002927 122.6443 237.4851 15.57651282330666
STARLINK-1578,46082,53.1591,0.000131,15.3170203,469.8367418143125,471.6311460016168,1 46082U 20055BH  26200.30514092 -.00000295  00000+0  22642-5 0  9993,2 46082  53.1591 209.2556 0001310 108.3150 251.7995 15.31702030329394
STARLINK-1579,46083,53.1588,0.0001137,15.31696173,469.9726847258007,471.53012194871917,1 46083U 20055BJ  26200.29143551  .00000294  00000+0  21227-4 0  9995,2 46083  53.1588 208.8560 0001137  76.9200 283.1928 15.31696173329399
STARLINK-1622,46128,52.9995,0.0013215,16.22016346,205.37134793979203,222.79458531158343,1 46128U 20057M   26200.51047160  .01635157  11889-4  68898-3 0  9990,2 46128  52.9995 281.3157 0013215 333.3736  26.6622 16.22016346328210
STARLINK-1623,46129,53.0346,0.0005409,15.88410879,303.1218727404239,310.353570214118,1 46129U 20057N   26200.91667823  .00129663  00000+0  45328-3 0  9999,2 46129  53.0346 322.7172 0005409 317.7794  92.8838 15.88410879  6055
STARLINK-1596,46141,53.0319,0.0002177,15.6677989,366.65600720361726,369.59332953402554,1 46141U 20057AA  26199.74305094  .00078702  00000+0  73058-3 0  9998,2 46141  53.0319 316.3776 0002177 272.7058  87.3707 15.66779890327675
STARLINK-1597,46142,53.0363,0.0005434,15.86691445,307.93108564803515,315.2014551623106,1 46142U 20057AB  26200.91667823  .00181704  00000+0  68621-3 0  9999,2 46142  53.0363   2.7221 0005434 279.1820 138.5295 15.86691445  6051
STARLINK-1608,46146,53.1563,0.0004465,15.39847892,443.51148870456836,449.6059419783678,1 46146U 20057AF  26200.83020850  .00033180  00000+0  82947-3 0  9998,2 46146  53.1563  51.8527 0004465 120.4930 239.6516 15.39847892326461
STARLINK-1595,46159,53.0369,0.0003901,15.83175926,318.85230111227065,324.0793312294463,1 46159U 20057AU  26200.75645538  .00130047  00000+0  58596-3 0  9992,2 46159  53.0369   7.1131 0003901 259.2982 100.7601 15.83175926328304
STARLINK-1598,46160,53.0426,0.000549,15.81171046,323.44670039691664,330.8090812470391,1 46160U 20057AV  26200.69399986  .00101461  00000+0  50412-3 0  9997,2 46160  53.0426 353.9132 0005490 319.5281  40.5332 15.81171046328477
STARLINK-1626,46167,53.0357,0.000737,15.87301596,304.92278655626615,314.78088209806447,1 46167U 20057BC  26200.91667823  .00166054  00000+0  60939-3 0  9991,2 46167  53.0357   0.8549 0007370 295.6194 262.7887 15.87301596  6009
STARLINK-1633,46171,53.0252,0.0014218,16.0829645,242.09465448908668,260.94674912995197,1 46171U 20057BG  26200.50578007  .00554197  16494-3  63289-3 0  9994,2 46171  53.0252 320.1517 0014218 325.0591  34.9507 16.08296450328932
STARLINK-1640,46173,53.0363,0.0003913,15.83501134,317.9273118461324,323.1697031242902,1 46173U 20057BJ  26200.91667823  .00120698  00000+0  53636-3 0  9998,2 46173  53.0363   7.2912 0003913 269.3187 101.1786 15.83501134  5792
STARLINK-1641,46174,53.0451,0.0003849,15.69193854,358.61019512577695,363.7981399565506,1 46174U 20057BK  26200.71625263  .00053073  00000+0  44942-3 0  9991,2 46174  53.0451   3.5716 0003849 295.2609  64.8008 15.69193854327099
STARLINK-1695,46329,53.0374,0.0006037,15.87723609,304.62985786874833,312.7035046334913,1 46329U 20062E   26200.91667823  .00154301  00000+0  55589-3 0  9994,2 46329  53.0374  43.7291 0006037 270.1751 158.3218 15.87723609  6050
STARLINK-1719,46331,53.0254,0.0009734,16.04110832,256.5837051237022,269.5127645388711,1 46331U 20062G   26200.50234367  .00492389  12300-3  73636-3 0  9999,2 46331  53.0254  42.3454 0009734 270.2889  89.7026 16.04110832325614
